{
    "links": {
        "self": "http://www.neowsapp.com/rest/v1/neo/3780700?api_key=iIulBulltgU6a56xZRHN4H3l9WmuAYTsLGpBGhQ2"
    },
    "id": "3780700",
    "neo_reference_id": "3780700",
    "name": "(2017 QN)",
    "designation": "2017 QN",
    "nasa_jpl_url": "http://ssd.jpl.nasa.gov/sbdb.cgi?sstr=3780700",
    "absolute_magnitude_h": 25.2,
    "estimated_diameter": {
        "kilometers": {
            "estimated_diameter_min": 0.0242412481,
            "estimated_diameter_max": 0.0542050786
        },
        "meters": {
            "estimated_diameter_min": 24.2412481101,
            "estimated_diameter_max": 54.2050786336
        },
        "miles": {
            "estimated_diameter_min": 0.0150628086,
            "estimated_diameter_max": 0.0336814639
        },
        "feet": {
            "estimated_diameter_min": 79.5316564495,
            "estimated_diameter_max": 177.8381901842
        }
    },
    "is_potentially_hazardous_asteroid": false,
    "close_approach_data": [
        {
            "close_approach_date": "2017-09-04",
            "close_approach_date_full": "2017-Sep-04 23:45",
            "epoch_date_close_approach": 1504568700000,
            "relative_velocity": {
                "kilometers_per_second": "5.6245575512",
                "kilometers_per_hour": "20248.4071844992",
                "miles_per_hour": "12581.5727863906"
            },
            "miss_distance": {
                "astronomical": "0.0751437561",
                "lunar": "29.2309211229",
                "kilometers": "11241345.856359507",
                "miles": "6985048.4141429166"
            },
            "orbiting_body": "Earth"
        }
    ],
    "orbital_data": {
        "orbit_id": "1",
        "orbit_determination_date": "2017-08-18 15:42:06",
        "first_observation_date": "2017-08-16",
        "last_observation_date": "2017-08-18",
        "data_arc_in_days": 2,
        "observations_used": 18,
        "orbit_uncertainty": "8",
        "minimum_orbit_intersection": ".0681509",
        "jupiter_tisserand_invariant": "4.696",
        "epoch_osculation": "2457982.5",
        "eccentricity": ".2883769069628144",
        "semi_major_axis": "1.402197226273055",
        "inclination": "7.504416122458379",
        "ascending_node_longitude": "315.6734633273532",
        "orbital_period": "606.473853834349",
        "perihelion_distance": ".9978359272085937",
        "perihelion_argument": "62.89563427610238",
        "aphelion_distance": "1.806558525337516",
        "perihelion_time": "2458036.162724819727",
        "mean_anomaly": "328.1460613463175",
        "mean_motion": ".5935952518380614",
        "equinox": "J2000",
        "orbit_class": {
            "orbit_class_type": "APO",
            "orbit_class_description": "Near-Earth asteroid orbits which cross the Earth’s orbit similar to that of 1862 Apollo",
            "orbit_class_range": "a (semi-major axis) > 1.0 AU; q (perihelion) < 1.017 AU"
        }
    },
    "is_sentry_object": false
}